CUTE-1 (CO-55)          
1 27844U 03031E   23211.56878442  .00000433  00000+0  21226-3 0  9990
2 27844  98.6780 218.1904 0009885   7.7365 352.3964 14.22828920 41935
CUBESAT XI-IV (CO-57)   
1 27848U 03031J   23211.45421035  .00000357  00000+0  18027-3 0  9994
2 27848  98.6817 218.4766 0010105  22.6959 337.4664 14.22333071 41705
CUBESAT XI-V            
1 28895U 05043F   23211.35174874  .00001654  00000+0  31163-3 0  9994
2 28895  98.1588 343.0973 0015062 298.2110  61.7571 14.65818338947362
CUTE-1.7+APD II (CO-65) 
1 32785U 08021C   23211.77630956  .00004449  00000+0  43692-3 0  9995
2 32785  97.7078 176.8131 0010822 325.9384  34.1140 14.92630025827393
AAUSAT-II               
1 32788U 08021F   23211.38617610  .00009079  00000+0  64738-3 0  9995
2 32788  97.5612 189.8725 0007300 188.5722 171.5381 15.04766438829709
DELFI-C3 (DO-64)        
1 32789U 08021G   23212.04020035  .00079021  00000+0  18017-2 0  9991
2 32789  97.2988 233.3995 0001362 347.7685  12.3530 15.42623462834239
SEEDS II (CO-66)        
1 32791U 08021J   23211.45283696  .00005781  00000+0  50374-3 0  9997
2 32791  97.6568 181.8005 0009957 264.6577  95.3509 14.97230276828218
SWISSCUBE               
1 35932U 09051B   23211.63805866  .00001135  00000+0  25852-3 0  9992
2 35932  98.5157  83.0152 0006393 226.9650 133.1013 14.57837814735587
BEESAT-1                
1 35933U 09051C   23212.08336787  .00000989  00000+0  22716-3 0  9996
2 35933  98.5084  84.7541 0004514 238.2514 121.8245 14.57733071735766
ITUPSAT1                
1 35935U 09051E   23211.60281975  .00000897  00000+0  21138-3 0  9998
2 35935  98.5185  84.1920 0006726 247.8603 112.1881 14.56773802735312
TISAT 1                 
1 36799U 10035E   23212.20825268  .00005884  00000+0  51935-3 0  9996
2 36799  98.1324  83.5650 0010803 179.2605 180.8633 14.96753882709011
M-CUBED & EXP-1 PRIME   
1 37855U 11061F   23211.42467930  .00020468  00000+0  60144-3 0  9998
2 37855 101.7063 197.5690 0112040 267.0275  91.8123 15.29150563643635
AEROCUBE 4.5A           
1 38767U 12048K   23211.44835714  .00007464  00000+0  50616-3 0  9992
2 38767  64.6632 264.1505 0116826 140.5025 220.4681 15.01689980211884
AEROCUBE 4.5B           
1 38768U 12048L   23212.41875541  .00013015  00000+0  73333-3 0  9993
2 38768  64.6615 203.6238 0095770 133.1096 227.8088 15.09609109212647
STRAND-1                
1 39090U 13009E   23211.77244350  .00000398  00000+0  15254-3 0  9994
2 39090  98.3880  43.9353 0009863 129.6026 230.6033 14.35643129545995
BRITE-AUSTRIA           
1 39091U 13009F   23211.42624023  .00000257  00000+0  10414-3 0  9993
2 39091  98.3911  42.8317 0011213 137.6393 222.5661 14.35516161545966
SOMP                    
1 39134U 13015E   23212.08153598  .00284093  00000+0  16472-2 0  9996
2 39134  64.8414 132.0292 0018212 255.9274 103.9857 15.77274253570251
BEESAT-3                
1 39135U 13015F   23211.65991762  .00051593  00000+0  10047-2 0  9991
2 39135  64.8545 190.6923 0017524 250.6606 109.2640 15.47091720569085
BEESAT-2                
1 39136U 13015G   23212.06067697  .00044498  00000+0  97761-3 0  9994
2 39136  64.8643 201.7233 0027642 272.0303  87.7670 15.43361367568925
NEE-01 PEGASO           
1 39151U 13018B   23212.25072525  .00002878  00000+0  35986-3 0  9998
2 39151  98.0129 322.5103 0016104  13.5478 346.6165 14.83027945554228
ESTCUBE 1               
1 39161U 13021C   23212.46806323  .00002180  00000+0  33500-3 0  9993
2 39161  97.8700 283.4765 0009338 178.8927 181.2304 14.74496763549696
POPACS 1                
1 39268U 13055D   23212.11706909  .00044809  00000+0  97326-3 0  9999
2 39268  80.9924 154.1943 0498014  30.6688 332.2634 14.69153327514358
POPACS 2                
1 39269U 13055E   23212.36122143  .00010693  00000+0  27376-3 0  9991
2 39269  81.0049 225.2160 0601182 215.0230 141.0017 14.44108559510171
POPACS 3                
1 39270U 13055F   23212.41846761  .00008164  00000+0  23710-3 0  9996
2 39270  81.0110 266.6090 0657914 331.7611  24.9296 14.29452657507589
ZACUBE-1 (TSHEPISOSAT)  
1 39417U 13066B   23212.43003859  .00004048  00000+0  46450-3 0  9999
2 39417  97.6875 172.5613 0055713 140.5652 219.9640 14.85279446523761
WNISAT-1                
1 39423U 13066H   23212.39254946  .00000739  00000+0  15327-3 0  9998
2 39423  97.6988  67.5773 0171189 298.8511  59.5598 14.54278503513869
TRITON-1                
1 39427U 13066M   23212.31365884  .00004416  00000+0  66006-3 0  9994
2 39427  97.8339 136.5156 0108725  37.0039 323.8604 14.71255813519039
DELFI-N3XT              
1 39428U 13066N   23212.33558224  .00007654  00000+0  10856-2 0  9997
2 39428  97.8318 135.6114 0111367  48.1413 312.9234 14.73033868518815
GOMX-1                  
1 39430U 13066Q   23212.40216561  .00001676  00000+0  29649-3 0  9992
2 39430  97.7744 100.9631 0144578 192.9224 166.8259 14.62007893515993
CUBEBUG-2 (LO-74)       
1 39440U 13066AA  23211.45033789  .00002603  00000+0  33791-3 0  9990
2 39440  97.7734 158.8032 0073267 246.0068 113.3462 14.79739281521758
NEE-02 KRYSAOR          
1 39441U 13066AB  23211.82414514  .00002130  00000+0  29079-3 0  9990
2 39441  97.7844 155.9173 0076153 262.3827  96.8729 14.77679698521457
FUNCUBE-1 (AO-73)       
1 39444U 13066AE  23212.40864458  .00004657  00000+0  51142-3 0  9996
2 39444  97.6735 175.1264 0054282 125.8135 234.8143 14.87053392522809
UWE-3                   
1 39446U 13066AG  23212.10755464  .00002836  00000+0  34824-3 0  9996
2 39446  97.7367 165.5752 0064666 193.9281 166.0151 14.82360701521526
BRITE-CA1 (TORONTO)     
1 40020U 14033L   23212.39193853  .00001114  00000+0  19160-3 0  9994
2 40020  97.8317 357.0944 0086040  39.9466 320.8027 14.68109016487748
DUCHIFAT-1              
1 40021U 14033M   23211.89786828  .00008145  00000+0  68317-3 0  9998
2 40021  98.0581 177.2837 0012017 126.8596 233.3729 14.98597036495732
NANOSATC-BR1            
1 40024U 14033Q   23211.45624341  .00005210  00000+0  46383-3 0  9993
2 40024  98.0295 167.6859 0011841 132.2951 227.9275 14.96452309495404
QB50P1                  
1 40025U 14033R   23212.40116608  .00005765  00000+0  54087-3 0  9997
2 40025  97.9982 159.9669 0012363 140.9693 219.2421 14.94332008495259
QB50P2                  
1 40032U 14033Y   23212.08050598  .00004180  00000+0  40245-3 0  9995
2 40032  97.9682 153.2123 0011686 139.9988 220.2094 14.93473707495044
PERSEUS-M2              
1 40037U 14033AD  23212.03582641  .00001771  00000+0  19599-3 0  9995
2 40037  97.9069 137.6157 0014001 170.0356 190.1140 14.88577973494376
PERSEUS-M1              
1 40039U 14033AF  23212.06703221  .00001903  00000+0  21185-3 0  9990
2 40039  97.8923 134.5460 0013818 169.2765 190.8749 14.88243314494256
POLYITAN-1              
1 40042U 14033AJ  23211.77485881  .00005808  00000+0  53175-3 0  9992
2 40042  98.0093 161.3386 0013981 135.8817 224.3521 14.95282191495069
TIGRISAT                
1 40043U 14033AK  23212.43489093  .00002149  00000+0  30651-3 0  9995
2 40043  97.6675  25.2367 0056066 270.0077  89.4709 14.76682430490241
AEROCUBE 6A             
1 40045U 14033AM  23212.07283677  .00004137  00000+0  55272-3 0  9992
2 40045  97.6579  34.7181 0052970 254.9084 104.6263 14.79079026490355
AEROCUBE 6B             
1 40046U 14033AN  23212.08365112  .00004120  00000+0  54099-3 0  9997
2 40046  97.6526  33.2131 0051609 251.6839 107.8755 14.79850313490523
UKUBE-1                 
1 40074U 14037F   23212.28181560  .00005592  00000+0  60500-3 0  9995
2 40074  98.3413 119.0880 0005292  57.8095 302.3633 14.88702514490816
BRITE-PL2 (HEWELIUSZ)   
1 40119U 14049B   23212.26051381  .00001994  00000+0  22959-3 0  9991
2 40119  97.8832 309.0218 0016128 347.7983  12.2840 14.86778031484802
FIREBIRD 4              
1 40378U 15003C   23212.42467690  .03921612  35260-5  13588-2 0  9991
2 40378  99.0610 186.4710 0005642 142.2401 217.9282 16.25320911471684
GRIFEX                  
1 40379U 15003D   23212.41262284  .00047009  00000+0  91526-3 0  9996
2 40379  99.0775 159.9535 0078453 118.0249 242.8958 15.44053653470208
CP10 (EXOCUBE)          
1 40380U 15003E   23212.36805241  .00026102  00000+0  67903-3 0  9991
2 40380  99.0826 148.9852 0094482 153.5994 207.0103 15.34385076469500
EXACTVIEW 9             
1 40936U 15052G   23212.22209912  .00002853  00000+0  29269-3 0  9990
2 40936   6.0025 133.0878 0010294 197.4645 162.5128 14.78728117423829
AEROCUBE 5C             
1 40965U 15058B   23211.44248242  .00002073  00000+0  23766-3 0  9990
2 40965  64.7722 269.6556 0163744  55.9062 305.7460 14.79587055209237
AEROCUBE 7              
1 40966U 15058C   23212.43621866  .00003014  00000+0  33097-3 0  9992
2 40966  64.7703 262.5959 0161178  55.2021 306.4132 14.80576983209439
ATHENOXAT 1             
1 41168U 15077C   23212.29385640  .00983198  00000+0  28754-2 0  9992
2 41168  14.9830 228.8812 0004550 160.7080 199.3424 15.89217038423267
GALASSIA                
1 41170U 15077E   23212.27641633  .00064290  00000+0  13217-2 0  9991
2 41170  14.9868 255.6358 0005179 318.6109  41.3823 15.44090584423038
VELOX-II                
1 41171U 15077F   23212.06297683  .00023988  00000+0  78792-3 0  9990
2 41171  14.9921   5.6541 0006277  90.1117 269.9926 15.29212095421987
HORYU-4                 
1 41340U 16012D   23212.39942132  .00007881  00000+0  48615-3 0  9995
2 41340  31.0034 258.8215 0010939 325.2251  34.7671 15.08537178409408
E-ST@R-II               
1 41459U 16025D   23212.38522615  .00032048  00000+0  86547-3 0  9998
2 41459  98.1818  58.2548 0099740 305.1654  54.0272 15.32723558399669
AAUSAT 4                
1 41460U 16025E   23212.36276377  .00244771  00000+0  18226-2 0  9995
2 41460  98.1499  73.1473 0041044 245.7107 113.9864 15.70928939400673
BEESAT-4                
1 41619U 16040W   23212.11320838  .00161954  00000+0  12983-2 0  9998
2 41619  97.1508 262.3498 0004348 122.1795 237.9890 15.70525758383741
